OBJECT_NAME,OBJECT_ID,EPOCH,MEAN_MOTION,ECCENTRICITY,INCLINATION,RA_OF_ASC_NODE,ARG_OF_PERICENTER,MEAN_ANOMALY,EPHEMERIS_TYPE,CLASSIFICATION_TYPE,NORAD_CAT_ID,ELEMENT_SET_NO,REV_AT_EPOCH,BSTAR,MEAN_MOTION_DOT,MEAN_MOTION_DDOT
INTELSAT 23 (IS-23),2012-057A,2026-07-20T20:14:38.723136,1.00276145,.00004741,0.0187,24.4340,102.8760,61.9590,0,U,38867,999,5029,0,-.285E-5,0
FM-6,2013-058A,2026-07-20T17:42:21.340800,1.00270123,.00012558,0.0054,49.4768,129.9372,268.3240,0,U,39360,999,4640,0,-.16E-6,0
INTELSAT 30 (IS-30),2014-062A,2026-07-20T21:13:54.433056,1.00272115,.00017627,0.0151,52.5627,341.1771,128.3445,0,U,40271,999,713,0,-.151E-5,0
DIRECTV 14,2014-078B,2026-07-20T10:47:38.598720,1.00274313,.0000485,0.0151,57.4012,335.1034,328.3806,0,U,40333,999,4237,0,-.127E-5,0
DIRECTV 15,2015-026A,2026-07-20T21:11:39.648192,1.00271377,.00003954,0.0209,79.6414,336.2618,97.7754,0,U,40663,999,4080,0,-.102E-5,0
SKY MEXICO-1,2015-026B,2026-07-20T21:18:31.490208,1.00270842,.00026331,0.0299,268.7762,224.8377,45.8734,0,U,40664,999,4079,0,-.234E-5,0
INTELSAT 34 (IS-34),2015-039A,2026-07-20T17:59:49.664832,1.00272186,.00007288,0.0123,344.4602,41.9549,126.5734,0,U,40874,999,3997,0,-.286E-5,0
INTELSAT 31 (IS-31),2016-035A,2026-07-20T21:13:54.433056,1.00271338,.00010065,0.0298,262.5411,50.7827,208.7579,0,U,41581,999,3702,0,-.151E-5,0
INTELSAT 36 (IS-36),2016-053A,2026-07-20T22:00:32.281056,1.00271603,.00024243,0.0094,23.9070,325.0815,348.3206,0,U,41747,999,3629,0,-.24E-6,0
INTELSAT 32E (IS-32E),2017-007B,2026-07-20T14:00:07.443936,1.00273345,.0000632,0.0128,27.7863,350.1536,87.2632,0,U,41945,999,3456,0,-.27E-5,0
INTELSAT 35E (IS-35E),2017-041A,2026-07-20T20:06:38.816064,1.00269814,.00021754,0.0213,57.1209,59.2462,89.4146,0,U,42818,999,3315,0,0,0
INTELSAT 37E (IS-37E),2017-059A,2026-07-20T19:53:14.005248,1.00272334,.00028506,0.0186,65.5236,58.2327,95.1452,0,U,42950,999,3240,0,-.141E-5,0
AZERSPACE 2 (IS-38),2018-074A,2026-07-20T21:53:47.928192,1.00272103,.00014828,0.0166,52.9735,64.4532,194.8079,0,U,43632,999,2878,0,.136E-5,0
HORIZONS-3E,2018-074B,2026-07-20T13:29:38.876928,1.00271973,.0000569,0.0423,238.4699,58.8170,12.4432,0,U,43633,999,2867,0,-.32E-6,0
AT&T T-16,2019-034A,2026-07-20T17:20:38.412384,1.00269337,.0000549,0.0140,69.7828,297.6234,90.3851,0,U,44333,999,2597,0,-.115E-5,0
INTELSAT 39 (IS-39),2019-049B,2026-07-20T17:52:21.578880,1.00259151,.00001854,0.0184,50.2484,231.2802,347.0224,0,U,44476,999,2546,0,0,0
GALAXY 30 (G-30),2020-056C,2026-07-20T15:57:20.971584,1.00270661,.0002159,0.0184,58.7653,56.9350,297.0671,0,U,46114,999,2162,0,.36E-6,0
GALAXY 33 (G-33),2022-128A,2026-07-20T17:37:44.283648,1.00275650,.00018012,0.0184,315.6670,166.6525,307.6068,0,U,54026,999,1407,0,.78E-6,0
GALAXY 34 (G-34),2022-128B,2026-07-20T15:56:13.579584,1.00274627,.00018581,0.0167,50.8823,70.9665,286.6531,0,U,54027,999,1424,0,0,0
GALAXY 31 (G-31),2022-153A,2026-07-20T15:58:35.851872,1.00272888,.00012532,0.0033,232.6164,248.9777,295.4788,0,U,54243,999,746,0,.12E-6,0
GALAXY 32 (G-32),2022-153B,2026-07-20T19:32:16.016064,1.00271812,.00014566,0.0098,38.3156,14.6512,87.6828,0,U,54244,999,1348,0,-.174E-5,0
GALAXY 35 (G-35),2022-170A,2026-07-20T21:14:24.385344,1.00272204,.00020198,0.0212,95.3515,21.4214,47.3721,0,U,54741,999,1323,0,-.162E-5,0
GALAXY 36 (G-36),2022-170B,2026-07-20T21:15:39.264768,1.00271679,.00027404,0.0203,134.1495,326.3461,68.0685,0,U,54742,999,1311,0,-.185E-5,0
GALAXY 37 (G-37),2023-112A,2026-07-20T14:14:10.635360,1.00272474,.00020439,0.0202,57.4932,59.4893,267.9196,0,U,57493,999,1087,0,.47E-6,0
